NORAD_CAT_ID,OBJECT_NAME,OBJECT_TYPE,EPOCH,MEAN_MOTION,ECCENTRICITY,INCLINATION,RA_OF_ASC_NODE,ARG_OF_PERICENTER,MEAN_ANOMALY,BSTAR,MEAN_MOTION_DOT,MEAN_MOTION_DDOT,TLE_LINE0,TLE_LINE1,TLE_LINE2,SEMIMAJOR_AXIS,PERIOD,APOGEE,PERIGEE,DECAYED
49752.0,STARLINK-3209,PAYLOAD,2022-03-31 22:00:00,15.1573899,0.0001703,53.218,118.1659,39.0491,121.9613,-0.028315,-0.00514797,0.0,0 STARLINK-3209,1 49752U 21115AE  22090.91667824 -.00514797  00000-0 -28315-1 0  9998,2 49752  53.2180 118.1659 0001703  39.0491 121.9613 15.15738990  3617,6896.873000000001,95.003,519.9119999999998,517.563,0.0
49752.0,STARLINK-3209,PAYLOAD,2022-04-01 08:00:01,15.15178223,0.0001436,53.2179,116.2747,61.1211,214.4467,-0.030623,-0.00545905,0.0,0 STARLINK-3209,1 49752U 21115AE  22091.33334491 -.00545905  00000-0 -30623-1 0  9996,2 49752  53.2179 116.2747 0001436  61.1211 214.4467 15.15178223 19643,6898.575,95.038,521.43,519.4490000000002,0.0
49752.0,STARLINK-3209,PAYLOAD,2022-04-01 14:00:01,15.1490838,0.0001531999999999,53.2171,115.1389,60.2743,139.5756,-0.037593,-0.00663618,0.0,0 STARLINK-3209,1 49752U 21115AE  22091.58334491 -.00663618  00000-0 -37593-1 0  9998,2 49752  53.2171 115.1389 0001532  60.2743 139.5756 15.14908380  3647,6899.394,95.055,522.316,520.202,0.0
49752.0,STARLINK-3209,PAYLOAD,2022-04-01 22:00:00,15.14441476,0.0001564,53.2172,113.6253,56.315,162.1408,-0.038081,-0.00663396,0.0,0 STARLINK-3209,1 49752U 21115AE  22091.91667824 -.00663396  00000-0 -38081-1 0  9990,2 49752  53.2172 113.6253 0001564  56.3150 162.1408 15.14441476 19724,6900.812,95.085,523.756,521.597,0.0
49752.0,STARLINK-3209,PAYLOAD,2022-04-02 22:00:01,15.13041004,0.000157,53.2172,109.0963,53.3072,217.6623,-0.039545,-0.00662253,0.0,0 STARLINK-3209,1 49752U 21115AE  22092.91668981 -.00662253  00000-0 -39545-1 0  9993,2 49752  53.2172 109.0963 0001570  53.3072 217.6623 15.13041004 19882,6905.069,95.173,528.018,525.85,0.0
49752.0,STARLINK-3209,PAYLOAD,2022-04-03 22:00:00,15.11640387,0.0001494,53.2173,104.5771,53.2791,265.0323,-0.041038,-0.00660877,0.0,0 STARLINK-3209,1 49752U 21115AE  22093.91667824 -.00660877  00000-0 -41038-1 0  9999,2 49752  53.2173 104.5771 0001494  53.2791 265.0323 15.11640387  3639,6909.334,95.261,532.231,530.1669999999998,0.0
49752.0,STARLINK-3209,PAYLOAD,2022-04-04 06:00:02,15.11175336,0.000164,53.2174,103.0743,45.9027,287.1503,-0.041718,-0.00663038,0.0,0 STARLINK-3209,1 49752U 21115AE  22094.25002315 -.00663038  00000-0 -41718-1 0  9992,2 49752  53.2174 103.0743 0001640  45.9027 287.1503 15.11175336 20086,6910.751,95.29,533.75,531.4830000000002,0.0
49752.0,STARLINK-3209,PAYLOAD,2022-04-04 14:00:01,15.10711166,0.0001336,53.2171,101.5712,64.1142,282.9946,-0.04255,-0.0066727,0.0,0 STARLINK-3209,1 49752U 21115AE  22094.58334491 -.00667270  00000-0 -42550-1 0  9998,2 49752  53.2171 101.5712 0001336  64.1142 282.9946 15.10711166  3648,6912.167,95.319,534.955,533.1080000000002,0.0
49752.0,STARLINK-3209,PAYLOAD,2022-04-04 22:00:00,15.10240235,0.0001375,53.2173,100.0677,59.8469,300.8235,-0.042627,-0.00660268,0.0,0 STARLINK-3209,1 49752U 21115AE  22094.91667824 -.00660268  00000-0 -42627-1 0  9999,2 49752  53.2173 100.0677 0001375  59.8469 300.8235 15.10240235  3634,6913.604,95.349,536.419,534.518,0.0
49752.0,STARLINK-3209,PAYLOAD,2022-04-05 06:00:00,15.096804,0.0001479,53.2182,98.57,66.6716,307.0516,-0.035217,-0.00538564,0.0,0 STARLINK-3209,1 49752U 21115AE  22095.25001157 -.00538564  00000-0 -35217-1 0  9998,2 49752  53.2182  98.5700 0001479  66.6716 307.0516 15.09680400 20234,6915.313,95.384,538.201,536.155,0.0
49752.0,STARLINK-3209,PAYLOAD,2022-04-05 14:00:01,15.09258467,0.0001399,53.2172,97.0689,62.5354,323.6415,-0.03497,-0.00529181,0.0,0 STARLINK-3209,1 49752U 21115AE  22095.58335648 -.00529181  00000-0 -34970-1 0  9999,2 49752  53.2172  97.0689 0001399  62.5354 323.6415 15.09258467  3638,6916.602,95.411,539.434,537.499,0.0
49752.0,STARLINK-3209,PAYLOAD,2022-04-05 22:00:00,15.08835241,0.0001434,53.2173,95.5701,61.0078,336.9761,0.00015708,2.213e-05,0.0,0 STARLINK-3209,1 49752U 21115AE  22095.91667824  .00002213  00000-0  15708-3 0  9990,2 49752  53.2173  95.5701 0001434  61.0078 336.9761 15.08835241 20331,6917.895,95.438,540.752,538.768,0.0
49752.0,STARLINK-3209,PAYLOAD,2022-04-06 14:00:01,15.08865854,0.0001597,53.2183,92.5884,51.0294,10.1592,-0.0020007,-0.00032011,0.0,0 STARLINK-3209,1 49752U 21115AE  22096.58334491 -.00032011  00000-0 -20007-2 0  9993,2 49752  53.2183  92.5884 0001597  51.0294  10.1592 15.08865854 20437,6917.801,95.436,540.771,538.562,0.0
49752.0,STARLINK-3209,PAYLOAD,2022-04-06 22:00:00,15.08817151,0.0001441999999999,53.2186,91.0907,57.8472,14.9578,0.00055602,8.567e-05,0.0,0 STARLINK-3209,1 49752U 21115AE  22096.91667824  .00008567  00000-0  55602-3 0  9996,2 49752  53.2186  91.0907 0001442  57.8472  14.9578 15.08817151  3592,6917.95,95.439,540.813,538.818,0.0
49752.0,STARLINK-3209,PAYLOAD,2022-04-07 14:00:01,15.08829253,0.0001595999999999,53.2186,88.0997,49.6019,46.3189,0.00074568,0.00011596,0.0,0 STARLINK-3209,1 49752U 21115AE  22097.58334491  .00011596  00000-0  74568-3 0  9999,2 49752  53.2186  88.0997 0001596  49.6019  46.3189 15.08829253  3631,6917.913000000001,95.438,540.882,538.674,0.0
49752.0,STARLINK-3209,PAYLOAD,2022-04-07 20:00:01,15.08821257,0.0001495,53.2188,86.9762,56.1015,318.5184,0.0050143,0.00080384,0.0,0 STARLINK-3209,1 49752U 21115AE  22097.83334491  .00080384  00000-0  50143-2 0  9990,2 49752  53.2188  86.9762 0001495  56.1015 318.5184 15.08821257 20620,6917.938,95.439,540.837,538.768,0.0
49752.0,STARLINK-3209,PAYLOAD,2022-04-07 22:00:00,15.08855476,0.0001541999999999,53.219,86.602,57.8411,49.6705,0.0019848,0.00031455,0.0,0 STARLINK-3209,1 49752U 21115AE  22097.91667824  .00031455  00000-0  19848-2 0  9990,2 49752  53.2190  86.6020 0001542  57.8411  49.6705 15.08855476  3596,6917.833000000001,95.437,540.765,538.631,0.0
49752.0,STARLINK-3209,PAYLOAD,2022-04-08 06:00:00,15.08863002,0.0001674,53.2191,85.1075,51.8997,67.2432,-0.00157,-0.00025203,0.0,0 STARLINK-3209,1 49752U 21115AE  22098.25001157 -.00025203  00000-0 -15700-2 0  9998,2 49752  53.2191  85.1075 0001674  51.8997  67.2432 15.08863002 20686,6917.81,95.436,540.8330000000002,538.5169999999998,0.0
49752.0,STARLINK-3209,PAYLOAD,2022-04-08 14:00:03,15.08874313,0.0001633,53.2191,83.6106,50.3688,80.5124,-0.0010620999999999,-0.00017167,0.0,0 STARLINK-3209,1 49752U 21115AE  22098.58336806 -.00017167  00000-0 -10621-2 0  9993,2 49752  53.2191  83.6106 0001633  50.3688  80.5124 15.08874313  3628,6917.776,95.435,540.77,538.511,0.0
49752.0,STARLINK-3209,PAYLOAD,2022-04-08 22:00:00,15.08868096,0.0001606,53.2195,82.1131,58.378,83.9981,-0.00097736,-0.00015821,0.0,0 STARLINK-3209,1 49752U 21115AE  22098.91667824 -.00015821  00000-0 -97736-3 0  9995,2 49752  53.2195  82.1131 0001606  58.3780  83.9981 15.08868096 20780,6917.795,95.436,540.771,538.549,0.0
49752.0,STARLINK-3209,PAYLOAD,2022-04-09 14:00:01,15.08843681,0.0001674,53.2195,79.1218,51.4668,114.1279,-0.0021019,-0.00033588,0.0,0 STARLINK-3209,1 49752U 21115AE  22099.58334491 -.00033588  00000-0 -21019-2 0  9990,2 49752  53.2195  79.1218 0001674  51.4668 114.1279 15.08843681  3631,6917.869000000002,95.437,540.8919999999998,538.576,0.0
49752.0,STARLINK-3209,PAYLOAD,2022-04-09 22:00:00,15.08827885,0.00016,53.22,77.6244,58.9445,118.2388,0.001976,0.0003129,0.0,0 STARLINK-3209,1 49752U 21115AE  22099.91667824  .00031290  00000-0  19760-2 0  9992,2 49752  53.2200  77.6244 0001600  58.9445 118.2388 15.08827885  3638,6917.917,95.438,540.889,538.6759999999998,0.0
49752.0,STARLINK-3209,PAYLOAD,2022-04-10 06:00:02,15.08837121,0.0001797,53.219,76.1263,51.7408,137.0774,0.0012407,0.00019511,0.0,0 STARLINK-3209,1 49752U 21115AE  22100.25002315  .00019511  00000-0  12407-2 0  9993,2 49752  53.2190  76.1263 0001797  51.7408 137.0774 15.08837121 20987,6917.889,95.438,540.997,538.511,0.0
49752.0,STARLINK-3209,PAYLOAD,2022-04-10 14:00:01,15.088625699999998,0.0001706,53.218,74.6329,54.2652,146.0687,-0.0014993,-0.00024085,0.0,0 STARLINK-3209,1 49752U 21115AE  22100.58334491 -.00024085  00000-0 -14993-2 0  9998,2 49752  53.2180  74.6329 0001706  54.2652 146.0687 15.08862570  3633,6917.811,95.436,540.857,538.496,0.0
49752.0,STARLINK-3209,PAYLOAD,2022-04-10 22:00:00,15.08869671,0.0001694,53.2178,73.1357,62.8874,149.0635,-0.0013607,-0.00021896,0.0,0 STARLINK-3209,1 49752U 21115AE  22100.91667824 -.00021896  00000-0 -13607-2 0  9992,2 49752  53.2178  73.1357 0001694  62.8874 149.0635 15.08869671  3637,6917.79,95.436,540.827,538.4830000000002,0.0
49752.0,STARLINK-3209,PAYLOAD,2022-04-11 06:00:00,15.08825865,0.0001901,53.2178,71.6411,56.1834,167.3802,0.00090377,0.00014119,0.0,0 STARLINK-3209,1 49752U 21115AE  22101.25001157  .00014119  00000-0  90377-3 0  9999,2 49752  53.2178  71.6411 0001901  56.1834 167.3802 15.08825865 21135,6917.924,95.438,541.104,538.4730000000002,0.0
49752.0,STARLINK-3209,PAYLOAD,2022-04-11 14:00:01,15.08872668,0.0001754,53.2175,70.1436,58.1901,176.9596,-0.0039197,-0.00062188,0.0,0 STARLINK-3209,1 49752U 21115AE  22101.58334491 -.00062188  00000-0 -39197-2 0  9998,2 49752  53.2175  70.1436 0001754  58.1901 176.9596 15.08872668  3629,6917.781,95.435,540.859,538.432,0.0
49752.0,STARLINK-3209,PAYLOAD,2022-04-11 22:00:00,15.08828132,0.0001649,53.2177,68.6466,63.4286,183.3214,0.00076615,0.00011922,0.0,0 STARLINK-3209,1 49752U 21115AE  22101.91667824  .00011922  00000-0  76615-3 0  9999,2 49752  53.2177  68.6466 0001649  63.4286 183.3214 15.08828132  3619,6917.917,95.438,540.922,538.641,0.0
49752.0,STARLINK-3209,PAYLOAD,2022-04-12 06:00:02,15.08817472,0.0001806,53.2175,67.152,56.1888,202.2094,0.0012743,0.00020038,0.0,0 STARLINK-3209,1 49752U 21115AE  22102.25002315  .00020038  00000-0  12743-2 0  9994,2 49752  53.2175  67.1520 0001806  56.1888 202.2094 15.08817472 21290,6917.949000000001,95.439,541.064,538.565,0.0
